SL-14 R/B               
1 21423U 91042B   26016.15430699  .00000275  00000+0  31828-4 0  9999
2 21423  82.4927 269.4557 0018354  56.5237 303.7728 14.81774669845294
ERS-1                   
1 21574U 91050A   26016.28536033  .00000237  00000+0  90604-4 0  9993
2 21574  98.7897  33.2037 0031925 359.7365   0.3800 14.39396600808193
ARIANE 40 R/B           
1 21610U 91050F   26016.04476271  .00000201  00000+0  72884-4 0  9996
2 21610  98.2116  70.2295 0002386 214.9135 145.1900 14.42844653811403
INTERCOSMOS 25          
1 21819U 91086A   26016.14646093  .00000600  00000+0  11816-3 0  9998
2 21819  82.6087 341.7636 1486008 230.1782 115.9016 12.11855871490324
SL-8 R/B                
1 21876U 92008B   26016.23872516  .00000067  00000+0  53795-4 0  9997
2 21876  82.9290 306.7896 0033384 282.0031 231.3584 13.75966384702201
SL-8 R/B                
1 21938U 92020B   26016.26958001  .00000164  00000+0  15394-3 0  9997
2 21938  82.9295 192.6749 0030240  84.5277  88.0012 13.75538201693923
USA 81                  
1 21949U 92023A   26016.33497201  .00000159  00000+0  51369-4 0  9997
2 21949  85.0103 161.6255 0001750 117.4711 242.6660 14.32342639 87294
COSMOS 2219             
1 22219U 92076A   26016.31595386 -.00000081  00000+0 -17965-4 0  9997
2 22219  71.0619 127.5565 0020726 279.4943  80.3837 14.14081386710977
SL-16 R/B               
1 22220U 92076B   26016.26090387  .00000086  00000+0  66736-4 0  9997
2 22220  71.0015 298.8143 0012895 185.7540 337.8956 14.16850036714405
COSMOS 2221             
1 22236U 92080A   26016.26805722  .00001691  00000+0  14848-3 0  9995
2 22236  82.5059 329.2733 0015084  15.7876 344.3813 14.95931629772952
SL-16 R/B               
1 22285U 92093B   26016.23145725  .00000293  00000+0  17447-3 0  9995
2 22285  71.0222 114.3927 0003786 356.0848   4.0245 14.15437678705733
COSMOS 2228             
1 22286U 92094A   26016.25179446  .00001506  00000+0  12845-3 0  9991
2 22286  82.5189 287.5131 0019396 115.4671 244.8561 14.96913843768217
