CCSDS_OMM_VERS = 2.0
CREATION_DATE  = 
ORIGINATOR     = 

OBJECT_NAME    = SL-14 R/B
OBJECT_ID      = 1991-042B
CENTER_NAME    = EARTH
REF_FRAME      = TEME
TIME_SYSTEM    = UTC
MEAN_ELEMENT_THEORY = SGP/SGP4

EPOCH          = 2026-01-16T03:42:12.123936
MEAN_MOTION    = 14.81774669
ECCENTRICITY   = .00183549
INCLINATION    = 82.4927
RA_OF_ASC_NODE = 269.4557
ARG_OF_PERICENTER = 56.5237
MEAN_ANOMALY   = 303.7728

EPHEMERIS_TYPE = 0
CLASSIFICATION_TYPE = U
NORAD_CAT_ID   = 21423
ELEMENT_SET_NO = 999
REV_AT_EPOCH   = 84529
BSTAR          = .31827922E-4
MEAN_MOTION_DOT = .275E-5
MEAN_MOTION_DDOT = 0

CCSDS_OMM_VERS = 2.0
CREATION_DATE  = 
ORIGINATOR     = 

OBJECT_NAME    = ERS-1
OBJECT_ID      = 1991-050A
CENTER_NAME    = EARTH
REF_FRAME      = TEME
TIME_SYSTEM    = UTC
MEAN_ELEMENT_THEORY = SGP/SGP4

EPOCH          = 2026-01-16T06:50:55.132512
MEAN_MOTION    = 14.39396600
ECCENTRICITY   = .00319258
INCLINATION    = 98.7897
RA_OF_ASC_NODE = 33.2037
ARG_OF_PERICENTER = 359.7365
MEAN_ANOMALY   = 0.3800

EPHEMERIS_TYPE = 0
CLASSIFICATION_TYPE = U
NORAD_CAT_ID   = 21574
ELEMENT_SET_NO = 999
REV_AT_EPOCH   = 80819
BSTAR          = .90603974E-4
MEAN_MOTION_DOT = .237E-5
MEAN_MOTION_DDOT = 0

CCSDS_OMM_VERS = 2.0
CREATION_DATE  = 
ORIGINATOR     = 

OBJECT_NAME    = ARIANE 40 R/B
OBJECT_ID      = 1991-050F
CENTER_NAME    = EARTH
REF_FRAME      = TEME
TIME_SYSTEM    = UTC
MEAN_ELEMENT_THEORY = SGP/SGP4

EPOCH          = 2026-01-16T01:04:27.498144
MEAN_MOTION    = 14.42844653
ECCENTRICITY   = .00023862
INCLINATION    = 98.2116
RA_OF_ASC_NODE = 70.2295
ARG_OF_PERICENTER = 214.9135
MEAN_ANOMALY   = 145.1900

EPHEMERIS_TYPE = 0
CLASSIFICATION_TYPE = U
NORAD_CAT_ID   = 21610
ELEMENT_SET_NO = 999
REV_AT_EPOCH   = 81140
BSTAR          = .72883723E-4
MEAN_MOTION_DOT = .201E-5
MEAN_MOTION_DDOT = 0

CCSDS_OMM_VERS = 2.0
CREATION_DATE  = 
ORIGINATOR     = 

OBJECT_NAME    = INTERCOSMOS 25
OBJECT_ID      = 1991-086A
CENTER_NAME    = EARTH
REF_FRAME      = TEME
TIME_SYSTEM    = UTC
MEAN_ELEMENT_THEORY = SGP/SGP4

EPOCH          = 2026-01-16T03:30:54.224352
MEAN_MOTION    = 12.11855871
ECCENTRICITY   = .14860082
INCLINATION    = 82.6087
RA_OF_ASC_NODE = 341.7636
ARG_OF_PERICENTER = 230.1782
MEAN_ANOMALY   = 115.9016

EPHEMERIS_TYPE = 0
CLASSIFICATION_TYPE = U
NORAD_CAT_ID   = 21819
ELEMENT_SET_NO = 999
REV_AT_EPOCH   = 49032
BSTAR          = .11815824E-3
MEAN_MOTION_DOT = .6E-5
MEAN_MOTION_DDOT = 0

CCSDS_OMM_VERS = 2.0
CREATION_DATE  = 
ORIGINATOR     = 

OBJECT_NAME    = SL-8 R/B
OBJECT_ID      = 1992-008B
CENTER_NAME    = EARTH
REF_FRAME      = TEME
TIME_SYSTEM    = UTC
MEAN_ELEMENT_THEORY = SGP/SGP4

EPOCH          = 2026-01-16T05:43:45.853824
MEAN_MOTION    = 13.75966384
ECCENTRICITY   = .00333842
INCLINATION    = 82.9290
RA_OF_ASC_NODE = 306.7896
ARG_OF_PERICENTER = 282.0031
MEAN_ANOMALY   = 231.3584

EPHEMERIS_TYPE = 0
CLASSIFICATION_TYPE = U
NORAD_CAT_ID   = 21876
ELEMENT_SET_NO = 999
REV_AT_EPOCH   = 70220
BSTAR          = .5379452E-4
MEAN_MOTION_DOT = .67E-6
MEAN_MOTION_DDOT = 0

CCSDS_OMM_VERS = 2.0
CREATION_DATE  = 
ORIGINATOR     = 

OBJECT_NAME    = SL-8 R/B
OBJECT_ID      = 1992-020B
CENTER_NAME    = EARTH
REF_FRAME      = TEME
TIME_SYSTEM    = UTC
MEAN_ELEMENT_THEORY = SGP/SGP4

EPOCH          = 2026-01-16T06:28:11.712864
MEAN_MOTION    = 13.75538201
ECCENTRICITY   = .00302403
INCLINATION    = 82.9295
RA_OF_ASC_NODE = 192.6749
ARG_OF_PERICENTER = 84.5277
MEAN_ANOMALY   = 88.0012

EPHEMERIS_TYPE = 0
CLASSIFICATION_TYPE = U
NORAD_CAT_ID   = 21938
ELEMENT_SET_NO = 999
REV_AT_EPOCH   = 69392
BSTAR          = .15393873E-3
MEAN_MOTION_DOT = .164E-5
MEAN_MOTION_DDOT = 0

CCSDS_OMM_VERS = 2.0
CREATION_DATE  = 
ORIGINATOR     = 

OBJECT_NAME    = USA 81
OBJECT_ID      = 1992-023A
CENTER_NAME    = EARTH
REF_FRAME      = TEME
TIME_SYSTEM    = UTC
MEAN_ELEMENT_THEORY = SGP/SGP4

EPOCH          = 2026-01-16T08:02:21.581664
MEAN_MOTION    = 14.32342639
ECCENTRICITY   = .00017506
INCLINATION    = 85.0103
RA_OF_ASC_NODE = 161.6255
ARG_OF_PERICENTER = 117.4711
MEAN_ANOMALY   = 242.6660

EPHEMERIS_TYPE = 0
CLASSIFICATION_TYPE = U
NORAD_CAT_ID   = 21949
ELEMENT_SET_NO = 999
REV_AT_EPOCH   = 8729
BSTAR          = .51368501E-4
MEAN_MOTION_DOT = .159E-5
MEAN_MOTION_DDOT = 0

CCSDS_OMM_VERS = 2.0
CREATION_DATE  = 
ORIGINATOR     = 

OBJECT_NAME    = COSMOS 2219
OBJECT_ID      = 1992-076A
CENTER_NAME    = EARTH
REF_FRAME      = TEME
TIME_SYSTEM    = UTC
MEAN_ELEMENT_THEORY = SGP/SGP4

EPOCH          = 2026-01-16T07:34:58.413504
MEAN_MOTION    = 14.14081386
ECCENTRICITY   = .0020726
INCLINATION    = 71.0619
RA_OF_ASC_NODE = 127.5565
ARG_OF_PERICENTER = 279.4943
MEAN_ANOMALY   = 80.3837

EPHEMERIS_TYPE = 0
CLASSIFICATION_TYPE = U
NORAD_CAT_ID   = 22219
ELEMENT_SET_NO = 999
REV_AT_EPOCH   = 71097
BSTAR          = -.17964821E-4
MEAN_MOTION_DOT = -.81E-6
MEAN_MOTION_DDOT = 0

CCSDS_OMM_VERS = 2.0
CREATION_DATE  = 
ORIGINATOR     = 

OBJECT_NAME    = SL-16 R/B
OBJECT_ID      = 1992-076B
CENTER_NAME    = EARTH
REF_FRAME      = TEME
TIME_SYSTEM    = UTC
MEAN_ELEMENT_THEORY = SGP/SGP4

EPOCH          = 2026-01-16T06:15:42.094368
MEAN_MOTION    = 14.16850036
ECCENTRICITY   = .00128956
INCLINATION    = 71.0015
RA_OF_ASC_NODE = 298.8143
ARG_OF_PERICENTER = 185.7540
MEAN_ANOMALY   = 337.8956

EPHEMERIS_TYPE = 0
CLASSIFICATION_TYPE = U
NORAD_CAT_ID   = 22220
ELEMENT_SET_NO = 999
REV_AT_EPOCH   = 71440
BSTAR          = .66736274E-4
MEAN_MOTION_DOT = .86E-6
MEAN_MOTION_DDOT = 0

CCSDS_OMM_VERS = 2.0
CREATION_DATE  = 
ORIGINATOR     = 

OBJECT_NAME    = COSMOS 2221
OBJECT_ID      = 1992-080A
CENTER_NAME    = EARTH
REF_FRAME      = TEME
TIME_SYSTEM    = UTC
MEAN_ELEMENT_THEORY = SGP/SGP4

EPOCH          = 2026-01-16T06:26:00.143808
MEAN_MOTION    = 14.95931629
ECCENTRICITY   = .00150847
INCLINATION    = 82.5059
RA_OF_ASC_NODE = 329.2733
ARG_OF_PERICENTER = 15.7876
MEAN_ANOMALY   = 344.3813

EPHEMERIS_TYPE = 0
CLASSIFICATION_TYPE = U
NORAD_CAT_ID   = 22236
ELEMENT_SET_NO = 999
REV_AT_EPOCH   = 77295
BSTAR          = .14847974E-3
MEAN_MOTION_DOT = .1691E-4
MEAN_MOTION_DDOT = 0

CCSDS_OMM_VERS = 2.0
CREATION_DATE  = 
ORIGINATOR     = 

OBJECT_NAME    = SL-16 R/B
OBJECT_ID      = 1992-093B
CENTER_NAME    = EARTH
REF_FRAME      = TEME
TIME_SYSTEM    = UTC
MEAN_ELEMENT_THEORY = SGP/SGP4

EPOCH          = 2026-01-16T05:33:17.906400
MEAN_MOTION    = 14.15437678
ECCENTRICITY   = .00037863
INCLINATION    = 71.0222
RA_OF_ASC_NODE = 114.3927
ARG_OF_PERICENTER = 356.0848
MEAN_ANOMALY   = 4.0245

EPHEMERIS_TYPE = 0
CLASSIFICATION_TYPE = U
NORAD_CAT_ID   = 22285
ELEMENT_SET_NO = 999
REV_AT_EPOCH   = 70573
BSTAR          = .17446977E-3
MEAN_MOTION_DOT = .293E-5
MEAN_MOTION_DDOT = 0

CCSDS_OMM_VERS = 2.0
CREATION_DATE  = 
ORIGINATOR     = 

OBJECT_NAME    = COSMOS 2228
OBJECT_ID      = 1992-094A
CENTER_NAME    = EARTH
REF_FRAME      = TEME
TIME_SYSTEM    = UTC
MEAN_ELEMENT_THEORY = SGP/SGP4

EPOCH          = 2026-01-16T06:02:35.041344
MEAN_MOTION    = 14.96913843
ECCENTRICITY   = .00193966
INCLINATION    = 82.5189
RA_OF_ASC_NODE = 287.5131
ARG_OF_PERICENTER = 115.4671
MEAN_ANOMALY   = 244.8561

EPHEMERIS_TYPE = 0
CLASSIFICATION_TYPE = U
NORAD_CAT_ID   = 22286
ELEMENT_SET_NO = 999
REV_AT_EPOCH   = 76821
BSTAR          = .1284488E-3
MEAN_MOTION_DOT = .1506E-4
MEAN_MOTION_DDOT = 0

